{
    "links": {
        "self": "http://www.neowsapp.com/rest/v1/neo/3612171?api_key=iIulBulltgU6a56xZRHN4H3l9WmuAYTsLGpBGhQ2"
    },
    "id": "3612171",
    "neo_reference_id": "3612171",
    "name": "(2012 UX9)",
    "designation": "2012 UX9",
    "nasa_jpl_url": "http://ssd.jpl.nasa.gov/sbdb.cgi?sstr=3612171",
    "absolute_magnitude_h": 26.4,
    "estimated_diameter": {
        "kilometers": {
            "estimated_diameter_min": 0.0139493823,
            "estimated_diameter_max": 0.0311917671
        },
        "meters": {
            "estimated_diameter_min": 13.9493822934,
            "estimated_diameter_max": 31.1917670523
        },
        "miles": {
            "estimated_diameter_min": 0.0086677416,
            "estimated_diameter_max": 0.0193816595
        },
        "feet": {
            "estimated_diameter_min": 45.7656914036,
            "estimated_diameter_max": 102.3351970157
        }
    },
    "is_potentially_hazardous_asteroid": false,
    "close_approach_data": [
        {
            "close_approach_date": "2012-10-12",
            "close_approach_date_full": "2012-Oct-12 18:01",
            "epoch_date_close_approach": 1350064860000,
            "relative_velocity": {
                "kilometers_per_second": "10.3450979027",
                "kilometers_per_hour": "37242.352449842",
                "miles_per_hour": "23140.9494986255"
            },
            "miss_distance": {
                "astronomical": "0.030188453",
                "lunar": "11.743308217",
                "kilometers": "4516128.26739511",
                "miles": "2806191.980508118"
            },
            "orbiting_body": "Earth"
        }
    ],
    "orbital_data": {
        "orbit_id": "5",
        "orbit_determination_date": "2019-07-16 06:15:01",
        "first_observation_date": "2012-10-15",
        "last_observation_date": "2012-10-18",
        "data_arc_in_days": 3,
        "observations_used": 32,
        "orbit_uncertainty": "7",
        "minimum_orbit_intersection": ".0283074",
        "jupiter_tisserand_invariant": "3.176",
        "epoch_osculation": "2459000.5",
        "eccentricity": ".5968227281183092",
        "semi_major_axis": "2.501162969900717",
        "inclination": "10.05236867900151",
        "ascending_node_longitude": "22.15464055871425",
        "orbital_period": "1444.812240224081",
        "perihelion_distance": "1.008412062736079",
        "perihelion_argument": "339.8794852221728",
        "aphelion_distance": "3.993913877065355",
        "perihelion_time": "2459085.924692304609",
        "mean_anomaly": "338.7149579900501",
        "mean_motion": ".2491673242913324",
        "equinox": "J2000",
        "orbit_class": {
            "orbit_class_type": "APO",
            "orbit_class_description": "Near-Earth asteroid orbits which cross the Earth’s orbit similar to that of 1862 Apollo",
            "orbit_class_range": "a (semi-major axis) > 1.0 AU; q (perihelion) < 1.017 AU"
        }
    },
    "is_sentry_object": false
}